BEIDOU-2 IGSO-1 (C06)   
1 36828U 10036A   23263.78862059 -.00000116  00000+0  00000+0 0  9995
2 36828  54.2344 172.0243 0036592 187.9238  29.1228  1.00248640 48194
BEIDOU-2 G4 (C04)       
1 37210U 10057A   23264.09202797 -.00000106  00000+0  00000+0 0  9995
2 37210   1.2115  61.5592 0006373 154.0077 337.2288  1.00273131 47255
BEIDOU-2 IGSO-2 (C07)   
1 37256U 10068A   23263.61942646 -.00000168  00000+0  00000+0 0  9996
2 37256  49.3813 284.1084 0032264 213.6521 192.8645  1.00278662 46756
BEIDOU-2 IGSO-3 (C08)   
1 37384U 11013A   23264.34624855 -.00000159  00000+0  00000+0 0  9999
2 37384  60.9646  49.7322 0028468 175.5509   7.5769  1.00277258 45640
BEIDOU-2 IGSO-4 (C09)   
1 37763U 11038A   23263.78679073 -.00000064  00000+0  00000+0 0  9991
2 37763  54.5081 174.5680 0111865 227.9065 335.6724  1.00270667 44608
BEIDOU-2 IGSO-5 (C10)   
1 37948U 11073A   23264.41900425 -.00000116  00000+0  00000+0 0  9992
2 37948  49.5055 283.7676 0095066 220.8865 101.9988  1.00268554 43371
BEIDOU-2 G5 (C05)       
1 38091U 12008A   23264.40840060  .00000062  00000+0  00000+0 0  9997
2 38091   1.7480  68.6508 0004290 172.2416 325.0087  1.00266005 42454
BEIDOU-2 M3 (C11)       
1 38250U 12018A   23263.30709046 -.00000072  00000+0  00000+0 0  9993
2 38250  56.5022 338.3458 0024041 256.1368 103.6572  1.86231132 77304
BEIDOU-2 M4 (C12)       
1 38251U 12018B   23262.70150989 -.00000072  00000+0  00000+0 0  9993
2 38251  56.4131 337.6578 0014889 256.0269 103.8702  1.86231862 77293
BEIDOU-2 M6 (C14)       
1 38775U 12050B   23263.48527698  .00000029  00000+0  00000+0 0  9992
2 38775  55.7033  96.2256 0011220 340.2325  19.7913  1.86231220 75029
BEIDOU-2 G6 (C02)       
1 38953U 12059A   23264.39840934 -.00000171  00000+0  00000+0 0  9990
2 38953   1.8665  81.8498 0007359 311.6794 193.9530  1.00273978 40022
BEIDOU-3S IGSO-1S (C31) 
1 40549U 15019A   23263.60396500 -.00000135  00000+0  00000+0 0  9991
2 40549  51.0714 307.3815 0040760 196.7796 165.0503  1.00252925 31045
BEIDOU-3S M2S (C57)     
1 40748U 15037A   23263.97800183 -.00000069  00000+0  00000+0 0  9995
2 40748  55.6523 336.2044 0011874 243.1558 116.7843  1.86233123 55494
BEIDOU-3S M1S (C58)     
1 40749U 15037B   23262.10033346 -.00000072  00000+0  00000+0 0  9993
2 40749  55.6565 336.2542 0003734 297.0112  63.0145  1.86232905 55467
BEIDOU-3S IGSO-2S (C56) 
1 40938U 15053A   23263.48441369 -.00000100  00000+0  00000+0 0  9993
2 40938  50.7870 270.5574 0047601 195.0267 164.3516  1.00279522 29310
BEIDOU-2 IGSO-6 (C13)   
1 41434U 16021A   23264.34112438 -.00000139  00000+0  00000+0 0  9991
2 41434  58.7792  48.0949 0048032 218.1491 313.2552  1.00279514 27440
BEIDOU-2 G7 (C03)       
1 41586U 16037A   23263.90327046 -.00000348  00000+0  00000+0 0  9992
2 41586   1.9079  68.6214 0007700 345.0407  21.5158  1.00277842 26760
BEIDOU-3 M1 (C19)       
1 43001U 17069A   23261.64074682  .00000028  00000+0  00000+0 0  9990
2 43001  55.8530  96.3488 0007422 300.2700  59.7301  1.86231653 39935
BEIDOU-3 M2 (C20)       
1 43002U 17069B   23264.26226320  .00000032  00000+0  00000+0 0  9995
2 43002  55.8546  96.2967 0005766 334.5030  25.5349  1.86231145 39972
BEIDOU-3 M7 (C27)       
1 43107U 18003A   23263.47607897 -.00000072  00000+0  00000+0 0  9999
2 43107  55.1089 336.9309 0003170  77.0594 283.0370  1.86232460 38726
BEIDOU-3 M8 (C28)       
1 43108U 18003B   23262.87736124 -.00000072  00000+0  00000+0 0  9999
2 43108  55.1023 336.9383 0004311 245.7956 114.2212  1.86230917 38715
BEIDOU-3 M4 (C22)       
1 43207U 18018A   23262.78265946  .00000028  00000+0  00000+0 0  9994
2 43207  55.8125  96.4090 0004509  17.6063 342.4787  1.86231512 38097
BEIDOU-3 M3 (C21)       
1 43208U 18018B   23262.84931814  .00000028  00000+0  00000+0 0  9996
2 43208  55.8122  96.4114 0005365 318.1607  41.8675  1.86231429 38099
BEIDOU-3 M9 (C29)       
1 43245U 18029A   23261.99820443 -.00000071  00000+0  00000+0 0  9998
2 43245  55.0037 334.7148 0001503 223.5609 136.4919  1.86232696 37237
BEIDOU-3 M10 (C30)      
1 43246U 18029B   23263.00211392 -.00000070  00000+0  00000+0 0  9999
2 43246  55.0001 334.7082 0002777 349.7266  10.3312  1.86232893 37236
BEIDOU-2 IGSO-7 (C16)   
1 43539U 18057A   23264.43133295 -.00000134  00000+0  00000+0 0  9999
2 43539  55.1185 171.7102 0064038 230.7476 226.6349  1.00278393 19139
BEIDOU-3 M5 (C23)       
1 43581U 18062A   23263.22232755  .00000051  00000+0  00000+0 0  9996
2 43581  54.1747 216.3714 0004858 285.4479  74.4812  1.86231883 34990
BEIDOU-3 M6 (C24)       
1 43582U 18062B   23263.08842649  .00000051  00000+0  00000+0 0  9990
2 43582  54.1745 216.3655 0005342   0.9269 359.0562  1.86229746 34998
BEIDOU-3 M12 (C26)      
1 43602U 18067A   23263.02458340  .00000050  00000+0  00000+0 0  9992
2 43602  54.2621 215.0241 0007169  14.1084 345.8944  1.86231499 34471
BEIDOU-3 M11 (C25)      
1 43603U 18067B   23263.15841126  .00000050  00000+0  00000+0 0  9995
2 43603  54.2592 214.9852 0004234 359.9473   0.0361  1.86231464 34506
BEIDOU-3 M13 (C32)      
1 43622U 18072A   23263.11734455  .00000029  00000+0  00000+0 0  9990
2 43622  55.7827  95.9370 0004162 295.8735  64.1512  1.86231540 34015
BEIDOU-3 M14 (C33)      
1 43623U 18072B   23263.51975092  .00000029  00000+0  00000+0 0  9999
2 43623  55.7849  95.9162 0002659 350.0659   9.9956  1.86231518 34011
BEIDOU-3 M16 (C35)      
1 43647U 18078A   23263.68257980 -.00000069  00000+0  00000+0 0  9993
2 43647  54.8985 334.7772 0005915   6.1701 353.8996  1.86227245 33537
BEIDOU-3 M15 (C34)      
1 43648U 18078B   23262.73885855 -.00000070  00000+0  00000+0 0  9999
2 43648  54.8947 334.8137 0002743  16.2499 343.8226  1.86232268 33529
BEIDOU-3 G1 (C59)       
1 43683U 18085A   23263.77962583 -.00000271  00000+0  00000+0 0  9998
2 43683   1.5477 123.2842 0003038 353.0671 303.8195  1.00273225 18023
BEIDOU-3 M17 (C36)      
1 43706U 18093A   23263.42373330  .00000051  00000+0  00000+0 0  9996
2 43706  54.2572 216.2830 0009961 282.4238  77.4483  1.86231956 32901
BEIDOU-3 M18 (C37)      
1 43707U 18093B   23263.82683488  .00000051  00000+0  00000+0 0  9999
2 43707  54.2578 216.2609 0008342 308.6722  51.2380  1.86229765 32904
BEIDOU-3 IGSO-1 (C38)   
1 44204U 19023A   23263.80882647 -.00000194  00000+0  00000+0 0  9991
2 44204  57.2448  48.0718 0024045 195.0945 167.4125  1.00277507 16330
BEIDOU-2 G8 (C01)       
1 44231U 19027A   23263.92382222 -.00000243  00000+0  00000+0 0  9997
2 44231   1.9954  81.0432 0006658 132.2403 263.2500  1.00266576 16044
BEIDOU-3 IGSO-2 (C39)   
1 44337U 19035A   23263.72503841 -.00000130  00000+0  00000+0 0  9998
2 44337  55.1518 167.6490 0032891 196.1928  16.1867  1.00269516 15634
BEIDOU-3 M24 (C46)      
1 44542U 19061A   23263.36146732  .00000052  00000+0  00000+0 0  9999
2 44542  54.4846 216.5177 0008473 342.7964  17.1580  1.86231496 27155
BEIDOU-3 M23 (C45)      
1 44543U 19061B   23263.10952410  .00000052  00000+0  00000+0 0  9990
2 44543  54.4830 216.4958 0005882 327.8325 135.1174  1.86231813 27154
BEIDOU-3 IGSO-3 (C40)   
1 44709U 19073A   23263.47887629 -.00000150  00000+0  00000+0 0  9996
2 44709  56.5073 291.5810 0035261 190.2749 169.7196  1.00277258 14429
BEIDOU-3 M22 (C44)      
1 44793U 19078A   23261.59602101 -.00000072  00000+0  00000+0 0  9998
2 44793  54.7482 334.8148 0004756  15.7495 344.3300  1.86232289 25974
BEIDOU-3 M21 (C43)      
1 44794U 19078B   23264.41129069 -.00000068  00000+0  00000+0 0  9995
2 44794  54.7202 334.6990 0002761   1.7448 358.3174  1.86232609 26033
BEIDOU-3 M19 (C41)      
1 44864U 19090A   23264.36560468  .00000032  00000+0  00000+0 0  9993
2 44864  55.7180  96.0817 0015283 274.3575 248.8334  1.86231728 25600
BEIDOU-3 M20 (C42)      
1 44865U 19090B   23262.91678747  .00000028  00000+0  00000+0 0  9998
2 44865  55.7185  96.1630 0013066 289.9285  71.6816  1.86231769 25575
BEIDOU-3 G2 (C60)       
1 45344U 20017A   23264.05428937 -.00000135  00000+0  00000+0 0  9993
2 45344   2.0584  17.0019 0003207 160.8778 281.3897  1.00271162 13246
BEIDOU-3 G3 (C61)       
1 45807U 20040A   23264.06038095 -.00000347  00000+0  00000+0 0  9991
2 45807   0.6042 347.1107 0005921 327.2793 177.5499  1.00266872 12053
BEIDOU-3 G4             
1 56564U 23066A   23264.45252653 -.00000107  00000+0  00000+0 0  9999
2 56564   2.8050 288.7335 0006794 214.9049 179.3784  1.00272277  1383
